CCSDS_OMM_VERS = 2.0
CREATION_DATE  = 
ORIGINATOR     = 

OBJECT_NAME    = H-2A R/B
OBJECT_ID      = 2006-002B
CENTER_NAME    = EARTH
REF_FRAME      = TEME
TIME_SYSTEM    = UTC
MEAN_ELEMENT_THEORY = SGP/SGP4

EPOCH          = 2026-03-30T23:39:04.684032
MEAN_MOTION    = 15.16903638
ECCENTRICITY   = .00524595
INCLINATION    = 98.2445
RA_OF_ASC_NODE = 238.8536
ARG_OF_PERICENTER = 168.2449
MEAN_ANOMALY   = 192.0020

EPHEMERIS_TYPE = 0
CLASSIFICATION_TYPE = U
NORAD_CAT_ID   = 28932
ELEMENT_SET_NO = 999
REV_AT_EPOCH   = 9766
BSTAR          = .71941353E-3
MEAN_MOTION_DOT = .14624E-3
MEAN_MOTION_DDOT = 0

CCSDS_OMM_VERS = 2.0
CREATION_DATE  = 
ORIGINATOR     = 

OBJECT_NAME    = RESURS-DK 1
OBJECT_ID      = 2006-021A
CENTER_NAME    = EARTH
REF_FRAME      = TEME
TIME_SYSTEM    = UTC
MEAN_ELEMENT_THEORY = SGP/SGP4

EPOCH          = 2026-03-31T05:21:15.824448
MEAN_MOTION    = 15.12878183
ECCENTRICITY   = .0001475
INCLINATION    = 69.9339
RA_OF_ASC_NODE = 181.3208
ARG_OF_PERICENTER = 46.7535
MEAN_ANOMALY   = 313.3754

EPHEMERIS_TYPE = 0
CLASSIFICATION_TYPE = U
NORAD_CAT_ID   = 29228
ELEMENT_SET_NO = 999
REV_AT_EPOCH   = 9078
BSTAR          = .17479E-3
MEAN_MOTION_DOT = .2975E-4
MEAN_MOTION_DDOT = 0

CCSDS_OMM_VERS = 2.0
CREATION_DATE  = 
ORIGINATOR     = 

OBJECT_NAME    = CZ-4B R/B
OBJECT_ID      = 2006-046C
CENTER_NAME    = EARTH
REF_FRAME      = TEME
TIME_SYSTEM    = UTC
MEAN_ELEMENT_THEORY = SGP/SGP4

EPOCH          = 2026-03-31T02:42:03.833568
MEAN_MOTION    = 15.17124811
ECCENTRICITY   = .00329216
INCLINATION    = 97.5552
RA_OF_ASC_NODE = 134.9621
ARG_OF_PERICENTER = 190.4904
MEAN_ANOMALY   = 169.5646

EPHEMERIS_TYPE = 0
CLASSIFICATION_TYPE = U
NORAD_CAT_ID   = 29507
ELEMENT_SET_NO = 999
REV_AT_EPOCH   = 6329
BSTAR          = .32095286E-3
MEAN_MOTION_DOT = .6384E-4
MEAN_MOTION_DDOT = 0

CCSDS_OMM_VERS = 2.0
CREATION_DATE  = 
ORIGINATOR     = 

OBJECT_NAME    = CZ-2C R/B
OBJECT_ID      = 2007-010B
CENTER_NAME    = EARTH
REF_FRAME      = TEME
TIME_SYSTEM    = UTC
MEAN_ELEMENT_THEORY = SGP/SGP4

EPOCH          = 2026-03-31T06:48:29.047392
MEAN_MOTION    = 14.20254257
ECCENTRICITY   = .00581456
INCLINATION    = 98.4001
RA_OF_ASC_NODE = 202.4825
ARG_OF_PERICENTER = 230.6475
MEAN_ANOMALY   = 128.9542

EPHEMERIS_TYPE = 0
CLASSIFICATION_TYPE = U
NORAD_CAT_ID   = 31114
ELEMENT_SET_NO = 999
REV_AT_EPOCH   = 98278
BSTAR          = .10594435E-3
MEAN_MOTION_DOT = .189E-5
MEAN_MOTION_DDOT = 0

CCSDS_OMM_VERS = 2.0
CREATION_DATE  = 
ORIGINATOR     = 

OBJECT_NAME    = COSMO-SKYMED 1
OBJECT_ID      = 2007-023A
CENTER_NAME    = EARTH
REF_FRAME      = TEME
TIME_SYSTEM    = UTC
MEAN_ELEMENT_THEORY = SGP/SGP4

EPOCH          = 2026-03-31T06:14:10.301280
MEAN_MOTION    = 14.96692729
ECCENTRICITY   = .000116
INCLINATION    = 97.8868
RA_OF_ASC_NODE = 281.4682
ARG_OF_PERICENTER = 103.3484
MEAN_ANOMALY   = 256.7867

EPHEMERIS_TYPE = 0
CLASSIFICATION_TYPE = U
NORAD_CAT_ID   = 31598
ELEMENT_SET_NO = 999
REV_AT_EPOCH   = 1813
BSTAR          = .41769796E-3
MEAN_MOTION_DOT = .471E-4
MEAN_MOTION_DDOT = 0

CCSDS_OMM_VERS = 2.0
CREATION_DATE  = 
ORIGINATOR     = 

OBJECT_NAME    = COSMOS 2428
OBJECT_ID      = 2007-029A
CENTER_NAME    = EARTH
REF_FRAME      = TEME
TIME_SYSTEM    = UTC
MEAN_ELEMENT_THEORY = SGP/SGP4

EPOCH          = 2026-03-31T04:45:05.776992
MEAN_MOTION    = 14.12948601
ECCENTRICITY   = .00097135
INCLINATION    = 70.9429
RA_OF_ASC_NODE = 158.2021
ARG_OF_PERICENTER = 254.8220
MEAN_ANOMALY   = 105.1827

EPHEMERIS_TYPE = 0
CLASSIFICATION_TYPE = U
NORAD_CAT_ID   = 31792
ELEMENT_SET_NO = 999
REV_AT_EPOCH   = 96713
BSTAR          = .19294725E-4
MEAN_MOTION_DOT = -.12E-6
MEAN_MOTION_DDOT = 0

CCSDS_OMM_VERS = 2.0
CREATION_DATE  = 
ORIGINATOR     = 

OBJECT_NAME    = SL-16 R/B
OBJECT_ID      = 2007-029B
CENTER_NAME    = EARTH
REF_FRAME      = TEME
TIME_SYSTEM    = UTC
MEAN_ELEMENT_THEORY = SGP/SGP4

EPOCH          = 2026-03-31T04:46:12.446688
MEAN_MOTION    = 14.14843691
ECCENTRICITY   = .00028081
INCLINATION    = 70.9745
RA_OF_ASC_NODE = 127.1726
ARG_OF_PERICENTER = 277.7835
MEAN_ANOMALY   = 147.0900

EPHEMERIS_TYPE = 0
CLASSIFICATION_TYPE = U
NORAD_CAT_ID   = 31793
ELEMENT_SET_NO = 999
REV_AT_EPOCH   = 96841
BSTAR          = .5713593E-5
MEAN_MOTION_DOT = -.37E-6
MEAN_MOTION_DDOT = 0

CCSDS_OMM_VERS = 2.0
CREATION_DATE  = 
ORIGINATOR     = 

OBJECT_NAME    = KORONAS-FOTON
OBJECT_ID      = 2009-003A
CENTER_NAME    = EARTH
REF_FRAME      = TEME
TIME_SYSTEM    = UTC
MEAN_ELEMENT_THEORY = SGP/SGP4

EPOCH          = 2026-03-30T23:05:54.537792
MEAN_MOTION    = 15.43908487
ECCENTRICITY   = .0011641
INCLINATION    = 82.4273
RA_OF_ASC_NODE = 253.7492
ARG_OF_PERICENTER = 80.6324
MEAN_ANOMALY   = 279.6239

EPHEMERIS_TYPE = 0
CLASSIFICATION_TYPE = U
NORAD_CAT_ID   = 33504
ELEMENT_SET_NO = 999
REV_AT_EPOCH   = 94902
BSTAR          = .41236139E-3
MEAN_MOTION_DOT = .18831E-3
MEAN_MOTION_DDOT = 0

CCSDS_OMM_VERS = 2.0
CREATION_DATE  = 
ORIGINATOR     = 

OBJECT_NAME    = CZ-2C R/B
OBJECT_ID      = 2011-030B
CENTER_NAME    = EARTH
REF_FRAME      = TEME
TIME_SYSTEM    = UTC
MEAN_ELEMENT_THEORY = SGP/SGP4

EPOCH          = 2026-03-31T07:35:25.257984
MEAN_MOTION    = 14.81298791
ECCENTRICITY   = .00510003
INCLINATION    = 97.8579
RA_OF_ASC_NODE = 47.1528
ARG_OF_PERICENTER = 280.4109
MEAN_ANOMALY   = 249.3579

EPHEMERIS_TYPE = 0
CLASSIFICATION_TYPE = U
NORAD_CAT_ID   = 37731
ELEMENT_SET_NO = 999
REV_AT_EPOCH   = 79329
BSTAR          = .24575313E-3
MEAN_MOTION_DOT = .1905E-4
MEAN_MOTION_DDOT = 0

CCSDS_OMM_VERS = 2.0
CREATION_DATE  = 
ORIGINATOR     = 

OBJECT_NAME    = H-2A R/B
OBJECT_ID      = 2012-025E
CENTER_NAME    = EARTH
REF_FRAME      = TEME
TIME_SYSTEM    = UTC
MEAN_ELEMENT_THEORY = SGP/SGP4

EPOCH          = 2026-03-31T06:38:19.502304
MEAN_MOTION    = 14.95321882
ECCENTRICITY   = .00428705
INCLINATION    = 98.4768
RA_OF_ASC_NODE = 59.0583
ARG_OF_PERICENTER = 241.3886
MEAN_ANOMALY   = 118.3017

EPHEMERIS_TYPE = 0
CLASSIFICATION_TYPE = U
NORAD_CAT_ID   = 38341
ELEMENT_SET_NO = 999
REV_AT_EPOCH   = 75144
BSTAR          = .32504642E-3
MEAN_MOTION_DOT = .3579E-4
MEAN_MOTION_DDOT = 0

CCSDS_OMM_VERS = 2.0
CREATION_DATE  = 
ORIGINATOR     = 

OBJECT_NAME    = SHIJIAN-16 (SJ-16)
OBJECT_ID      = 2013-057A
CENTER_NAME    = EARTH
REF_FRAME      = TEME
TIME_SYSTEM    = UTC
MEAN_ELEMENT_THEORY = SGP/SGP4

EPOCH          = 2026-03-31T06:46:00.393600
MEAN_MOTION    = 14.92427236
ECCENTRICITY   = .0015336
INCLINATION    = 74.9723
RA_OF_ASC_NODE = 144.2136
ARG_OF_PERICENTER = 56.5121
MEAN_ANOMALY   = 303.7531

EPHEMERIS_TYPE = 0
CLASSIFICATION_TYPE = U
NORAD_CAT_ID   = 39358
ELEMENT_SET_NO = 999
REV_AT_EPOCH   = 67472
BSTAR          = .9960409E-4
MEAN_MOTION_DOT = .994E-5
MEAN_MOTION_DDOT = 0

CCSDS_OMM_VERS = 2.0
CREATION_DATE  = 
ORIGINATOR     = 

OBJECT_NAME    = SL-4 R/B
OBJECT_ID      = 2014-021B
CENTER_NAME    = EARTH
REF_FRAME      = TEME
TIME_SYSTEM    = UTC
MEAN_ELEMENT_THEORY = SGP/SGP4

EPOCH          = 2026-03-31T02:44:58.033248
MEAN_MOTION    = 15.39951163
ECCENTRICITY   = .0095085
INCLINATION    = 51.6057
RA_OF_ASC_NODE = 232.6988
ARG_OF_PERICENTER = 181.0693
MEAN_ANOMALY   = 179.0103

EPHEMERIS_TYPE = 0
CLASSIFICATION_TYPE = U
NORAD_CAT_ID   = 39679
ELEMENT_SET_NO = 999
REV_AT_EPOCH   = 65957
BSTAR          = .49647E-3
MEAN_MOTION_DOT = .23207E-3
MEAN_MOTION_DDOT = 0

