H-2A R/B                
1 28932U 06002B   26089.98547088  .00014624  00000+0  71941-3 0  9997
2 28932  98.2445 238.8536 0052459 168.2449 192.0020 15.16903638 97666
RESURS-DK 1             
1 29228U 06021A   26090.22309982  .00002975  00000+0  17479-3 0  9997
2 29228  69.9339 181.3208 0001475  46.7535 313.3754 15.12878183 90788
CZ-4B R/B               
1 29507U 06046C   26090.11254437  .00006384  00000+0  32095-3 0  9995
2 29507  97.5552 134.9621 0032921 190.4904 169.5646 15.17124811 63296
CZ-2C R/B               
1 31114U 07010B   26090.28366953  .00000189  00000+0  10594-3 0  9996
2 31114  98.4001 202.4825 0058145 230.6475 128.9542 14.20254257982784
COSMO-SKYMED 1          
1 31598U 07023A   26090.25984145  .00004710  00000+0  41770-3 0  9996
2 31598  97.8868 281.4682 0001160 103.3484 256.7867 14.96692729 18135
COSMOS 2428             
1 31792U 07029A   26090.19798353 -.00000012  00000+0  19295-4 0  9995
2 31792  70.9429 158.2021 0009713 254.8220 105.1827 14.12948601967133
SL-16 R/B               
1 31793U 07029B   26090.19875517 -.00000037  00000+0  57136-5 0  9998
2 31793  70.9745 127.1726 0002808 277.7835 147.0900 14.14843691968410
KORONAS-FOTON           
1 33504U 09003A   26089.96243678  .00018831  00000+0  41236-3 0  9996
2 33504  82.4273 253.7492 0011641  80.6324 279.6239 15.43908487949022
CZ-2C R/B               
1 37731U 11030B   26090.31626456  .00001905  00000+0  24575-3 0  9996
2 37731  97.8579  47.1528 0051000 280.4109 249.3579 14.81298791793294
H-2A R/B                
1 38341U 12025E   26090.27661461  .00003579  00000+0  32505-3 0  9990
2 38341  98.4768  59.0583 0042870 241.3886 118.3017 14.95321882751441
SHIJIAN-16 (SJ-16)      
1 39358U 13057A   26090.28194900  .00000994  00000+0  99604-4 0  9997
2 39358  74.9723 144.2136 0015336  56.5121 303.7531 14.92427236674729
SL-4 R/B                
1 39679U 14021B   26090.11456057  .00023207  00000+0  49647-3 0  9994
2 39679  51.6057 232.6988 0095085 181.0693 179.0103 15.39951163659579
